start=new Date('2022-08-03T00:00:00.000Z').valueOf();
sats=[{"SITE":"AFETR","SEMIMAJOR_AXIS":"6917.959","CENTER_NAME":"EARTH","OBJECT_ID":"2022-041Z","COUNTRY_CODE":"US","REF_FRAME":"TEME","APOAPSIS":"541.150","OBJECT_TYPE":"PAYLOAD","PERIAPSIS":"538.497","TIME_SYSTEM":"UTC","GP_ID":"209432465","DECAY_DATE":null,"BSTAR":"0.00146330000000","MEAN_ANOMALY":"347.3644","MEAN_ELEMENT_THEORY":"SGP4","LAUNCH_DATE":"2022-04-21","EPOCH":"2022-08-02T14:00:01.000224","OBJECT_NAME":"STARLINK-3561","NORAD_CAT_ID":"52284","ARG_OF_PERICENTER":"37.6026","RCS_SIZE":"LARGE","TLE_LINE2":"2 52284  53.2137 242.8609 0001917  37.6026 347.3644 15.08814441 17181","MEAN_MOTION_DOT":"0.00023061","INCLINATION":"53.2137","ECCENTRICITY":"0.00019170","TLE_LINE1":"1 52284U 22041Z   22214.58334491  .00023061  00000-0  14633-2 0  9999","MEAN_MOTION":"15.08814441","MEAN_MOTION_DDOT":"0.0000000000000","FILE":"3527753","CLASSIFICATION_TYPE":"U","EPHEMERIS_TYPE":"0","ELEMENT_SET_NO":"999","RA_OF_ASC_NODE":"242.8609","PERIOD":"95.439","REV_AT_EPOCH":"1718"},{"DECAY_DATE":null,"GP_ID":"209432954","OBJECT_NAME":"STARLINK-3775","LAUNCH_DATE":"2022-04-21","MEAN_ELEMENT_THEORY":"SGP4","EPOCH":"2022-08-02T14:00:01.000224","MEAN_ANOMALY":"249.3130","BSTAR":"0.00233920000000","CENTER_NAME":"EARTH","OBJECT_ID":"2022-041AA","COUNTRY_CODE":"US","SEMIMAJOR_AXIS":"6917.926","SITE":"AFETR","PERIAPSIS":"538.315","TIME_SYSTEM":"UTC","OBJECT_TYPE":"PAYLOAD","REF_FRAME":"TEME","APOAPSIS":"541.268","CLASSIFICATION_TYPE":"U","EPHEMERIS_TYPE":"0","MEAN_MOTION_DDOT":"0.0000000000000","FILE":"3527753","TLE_LINE1":"1 52285U 22041AA  22214.58334491  .00037122  00000-0  23392-2 0  9995","MEAN_MOTION":"15.08824996","REV_AT_EPOCH":"1705","ELEMENT_SET_NO":"999","RA_OF_ASC_NODE":"252.8611","PERIOD":"95.439","RCS_SIZE":"LARGE","ARG_OF_PERICENTER":"40.6342","NORAD_CAT_ID":"52285","INCLINATION":"53.2189","ECCENTRICITY":"0.00021340","MEAN_MOTION_DOT":"0.00037122","TLE_LINE2":"2 52285  53.2189 252.8611 0002134  40.6342 249.3130 15.08824996 17053"},{"NORAD_CAT_ID":"52286","ARG_OF_PERICENTER":"60.2450","RCS_SIZE":"LARGE","TLE_LINE2":"2 52286  53.2137 242.8587 0001720  60.2450   4.7194 15.08834237  1309","MEAN_MOTION_DOT":"0.00025676","INCLINATION":"53.2137","ECCENTRICITY":"0.00017200","TLE_LINE1":"1 52286U 22041AB  22214.58334491  .00025676  00000-0  16257-2 0  9999","MEAN_MOTION":"15.08834237","MEAN_MOTION_DDOT":"0.0000000000000","FILE":"3527697","CLASSIFICATION_TYPE":"U","EPHEMERIS_TYPE":"0","ELEMENT_SET_NO":"999","RA_OF_ASC_NODE":"242.8587","PERIOD":"95.438","REV_AT_EPOCH":"130","SITE":"AFETR","SEMIMAJOR_AXIS":"6917.898","CENTER_NAME":"EARTH","OBJECT_ID":"2022-041AB","COUNTRY_CODE":"US","REF_FRAME":"TEME","APOAPSIS":"540.953","OBJECT_TYPE":"PAYLOAD","PERIAPSIS":"538.573","TIME_SYSTEM":"UTC","GP_ID":"209430670","DECAY_DATE":null,"BSTAR":"0.00162570000000","MEAN_ANOMALY":"4.7194","LAUNCH_DATE":"2022-04-21","EPOCH":"2022-08-02T14:00:01.000224","MEAN_ELEMENT_THEORY":"SGP4","OBJECT_NAME":"STARLINK-3802"},{"ELEMENT_SET_NO":"999","RA_OF_ASC_NODE":"252.8621","PERIOD":"95.439","REV_AT_EPOCH":"1705","TLE_LINE1":"1 52287U 22041AC  22214.58334491  .00037731  00000-0  23776-2 0  9999","MEAN_MOTION":"15.08816696","CLASSIFICATION_TYPE":"U","EPHEMERIS_TYPE":"0","MEAN_MOTION_DDOT":"0.0000000000000","FILE":"3527790","MEAN_MOTION_DOT":"0.00037731","TLE_LINE2":"2 52287  53.2180 252.8621 0002289  40.7605 289.2044 15.08816696 17056","INCLINATION":"53.2180","ECCENTRICITY":"0.00022890","NORAD_CAT_ID":"52287","RCS_SIZE":"LARGE","ARG_OF_PERICENTER":"40.7605","MEAN_ANOMALY":"289.2044","BSTAR":"0.00237760000000","OBJECT_NAME":"STARLINK-3822","MEAN_ELEMENT_THEORY":"SGP4","LAUNCH_DATE":"2022-04-21","EPOCH":"2022-08-02T14:00:01.000224","GP_ID":"209433522","DECAY_DATE":null,"REF_FRAME":"TEME","APOAPSIS":"541.400","PERIAPSIS":"538.233","TIME_SYSTEM":"UTC","OBJECT_TYPE":"PAYLOAD","SEMIMAJOR_AXIS":"6917.952","SITE":"AFETR","CENTER_NAME":"EARTH","OBJECT_ID":"2022-041AC","COUNTRY_CODE":"US"},{"OBJECT_TYPE":"PAYLOAD","PERIAPSIS":"538.415","TIME_SYSTEM":"UTC","REF_FRAME":"TEME","APOAPSIS":"541.005","CENTER_NAME":"EARTH","OBJECT_ID":"2022-041AD","COUNTRY_CODE":"US","SITE":"AFETR","SEMIMAJOR_AXIS":"6917.845","MEAN_ELEMENT_THEORY":"SGP4","LAUNCH_DATE":"2022-04-21","EPOCH":"2022-08-02T14:00:01.000224","OBJECT_NAME":"STARLINK-3776","BSTAR":"-0.00097757000000","MEAN_ANOMALY":"32.7461","GP_ID":"209431182","DECAY_DATE":null,"INCLINATION":"53.2131","ECCENTRICITY":"0.00018720","TLE_LINE2":"2 52288  53.2131 242.8592 0001872  52.2267  32.7461 15.08851563  1305","MEAN_MOTION_DOT":"-0.00015818","ARG_OF_PERICENTER":"52.2267","RCS_SIZE":"LARGE","NORAD_CAT_ID":"52288","REV_AT_EPOCH":"130","RA_OF_ASC_NODE":"242.8592","ELEMENT_SET_NO":"999","PERIOD":"95.437","MEAN_MOTION_DDOT":"0.0000000000000","FILE":"3527697","CLASSIFICATION_TYPE":"U","EPHEMERIS_TYPE":"0","TLE_LINE1":"1 52288U 22041AD  22214.58334491 -.00015818  00000-0 -97757-3 0  9995","MEAN_MOTION":"15.08851563"},{"CENTER_NAME":"EARTH","OBJECT_ID":"2022-041AE","COUNTRY_CODE":"US","SEMIMAJOR_AXIS":"6917.961","SITE":"AFETR","PERIAPSIS":"538.256","TIME_SYSTEM":"UTC","OBJECT_TYPE":"PAYLOAD","REF_FRAME":"TEME","APOAPSIS":"541.396","GP_ID":"209430542","DECAY_DATE":null,"OBJECT_NAME":"STARLINK-3751","LAUNCH_DATE":"2022-04-21","EPOCH":"2022-08-02T14:00:01.000224","MEAN_ELEMENT_THEORY":"SGP4","MEAN_ANOMALY":"323.8803","BSTAR":"0.00139710000000","RCS_SIZE":"LARGE","ARG_OF_PERICENTER":"41.1135","NORAD_CAT_ID":"52289","INCLINATION":"53.2121","ECCENTRICITY":"0.00022690","MEAN_MOTION_DOT":"0.00022001","TLE_LINE2":"2 52289  53.2121 242.8625 0002269  41.1135 323.8803 15.08813590  1306","CLASSIFICATION_TYPE":"U","EPHEMERIS_TYPE":"0","MEAN_MOTION_DDOT":"0.0000000000000","FILE":"3527697","TLE_LINE1":"1 52289U 22041AE  22214.58334491  .00022001  00000-0  13971-2 0  9991","MEAN_MOTION":"15.08813590","REV_AT_EPOCH":"130","RA_OF_ASC_NODE":"242.8625","ELEMENT_SET_NO":"999","PERIOD":"95.439"},{"CENTER_NAME":"EARTH","OBJECT_ID":"2022-041AF","COUNTRY_CODE":"US","SEMIMAJOR_AXIS":"6917.906","SITE":"AFETR","PERIAPSIS":"538.712","TIME_SYSTEM":"UTC","OBJECT_TYPE":"PAYLOAD","REF_FRAME":"TEME","APOAPSIS":"540.830","GP_ID":"209431054","DECAY_DATE":null,"OBJECT_NAME":"STARLINK-3772","MEAN_ELEMENT_THEORY":"SGP4","LAUNCH_DATE":"2022-04-21","EPOCH":"2022-08-02T14:00:01.000224","MEAN_ANOMALY":"88.5851","BSTAR":"-0.00038259000000","RCS_SIZE":"LARGE","ARG_OF_PERICENTER":"51.2299","NORAD_CAT_ID":"52290","INCLINATION":"53.2132","ECCENTRICITY":"0.00015310","MEAN_MOTION_DOT":"-0.00006370","TLE_LINE2":"2 52290  53.2132 242.8582 0001531  51.2299  88.5851 15.08831617  1304","CLASSIFICATION_TYPE":"U","EPHEMERIS_TYPE":"0","MEAN_MOTION_DDOT":"0.0000000000000","FILE":"3527697","TLE_LINE1":"1 52290U 22041AF  22214.58334491 -.00006370  00000-0 -38259-3 0  9993","MEAN_MOTION":"15.08831617","REV_AT_EPOCH":"130","RA_OF_ASC_NODE":"242.8582","ELEMENT_SET_NO":"999","PERIOD":"95.438"},{"REF_FRAME":"TEME","APOAPSIS":"541.190","PERIAPSIS":"538.370","TIME_SYSTEM":"UTC","OBJECT_TYPE":"PAYLOAD","SEMIMAJOR_AXIS":"6917.915","SITE":"AFETR","CENTER_NAME":"EARTH","OBJECT_ID":"2022-041AG","COUNTRY_CODE":"US","MEAN_ANOMALY":"2.9323","BSTAR":"0.00154830000000","OBJECT_NAME":"STARLINK-3773","LAUNCH_DATE":"2022-04-21","MEAN_ELEMENT_THEORY":"SGP4","EPOCH":"2022-08-02T14:00:01.000224","DECAY_DATE":null,"GP_ID":"209431438","MEAN_MOTION_DOT":"0.00024432","TLE_LINE2":"2 52291  53.2141 242.8604 0002038  42.0076   2.9323 15.08828610  1307","INCLINATION":"53.2141","ECCENTRICITY":"0.00020380","NORAD_CAT_ID":"52291","RCS_SIZE":"LARGE","ARG_OF_PERICENTER":"42.0076","RA_OF_ASC_NODE":"242.8604","ELEMENT_SET_NO":"999","PERIOD":"95.438","REV_AT_EPOCH":"130","TLE_LINE1":"1 52291U 22041AG  22214.58334491  .00024432  00000-0  15483-2 0  9994","MEAN_MOTION":"15.08828610","CLASSIFICATION_TYPE":"U","EPHEMERIS_TYPE":"0","MEAN_MOTION_DDOT":"0.0000000000000","FILE":"3527697"},{"COUNTRY_CODE":"US","CENTER_NAME":"EARTH","OBJECT_ID":"2022-041AH","SEMIMAJOR_AXIS":"6917.894","SITE":"AFETR","TIME_SYSTEM":"UTC","PERIAPSIS":"538.610","OBJECT_TYPE":"PAYLOAD","APOAPSIS":"540.907","REF_FRAME":"TEME","GP_ID":"209432966","DECAY_DATE":null,"OBJECT_NAME":"STARLINK-3753","MEAN_ELEMENT_THEORY":"SGP4","LAUNCH_DATE":"2022-04-21","EPOCH":"2022-08-02T14:00:01.000224","MEAN_ANOMALY":"104.4315","BSTAR":"0.00180490000000","RCS_SIZE":"MEDIUM","ARG_OF_PERICENTER":"60.5127","NORAD_CAT_ID":"52292","ECCENTRICITY":"0.00016600","INCLINATION":"53.2152","MEAN_MOTION_DOT":"0.00028550","TLE_LINE2":"2 52292  53.2152 242.8489 0001660  60.5127 104.4315 15.08835625 17190","EPHEMERIS_TYPE":"0","CLASSIFICATION_TYPE":"U","FILE":"3527754","MEAN_MOTION_DDOT":"0.0000000000000","MEAN_MOTION":"15.08835625","TLE_LINE1":"1 52292U 22041AH  22214.58334491  .00028550  00000-0  18049-2 0  9991","REV_AT_EPOCH":"1719","PERIOD":"95.438","ELEMENT_SET_NO":"999","RA_OF_ASC_NODE":"242.8489"},{"MEAN_MOTION":"15.08820637","TLE_LINE1":"1 52293U 22041AJ  22214.58334491  .00027352  00000-0  17309-2 0  9999","FILE":"3527697","MEAN_MOTION_DDOT":"0.0000000000000","EPHEMERIS_TYPE":"0","CLASSIFICATION_TYPE":"U","PERIOD":"95.439","RA_OF_ASC_NODE":"242.8596","ELEMENT_SET_NO":"999","REV_AT_EPOCH":"130","NORAD_CAT_ID":"52293","ARG_OF_PERICENTER":"55.5262","RCS_SIZE":"LARGE","TLE_LINE2":"2 52293  53.2132 242.8596 0001740  55.5262  49.4212 15.08820637  1308","MEAN_MOTION_DOT":"0.00027352","ECCENTRICITY":"0.00017400","INCLINATION":"53.2132","DECAY_DATE":null,"GP_ID":"209430926","BSTAR":"0.00173090000000","MEAN_ANOMALY":"49.4212","MEAN_ELEMENT_THEORY":"SGP4","LAUNCH_DATE":"2022-04-21","EPOCH":"2022-08-02T14:00:01.000224","OBJECT_NAME":"STARLINK-3771","SITE":"AFETR","SEMIMAJOR_AXIS":"6917.940","COUNTRY_CODE":"US","CENTER_NAME":"EARTH","OBJECT_ID":"2022-041AJ","APOAPSIS":"541.008","REF_FRAME":"TEME","OBJECT_TYPE":"PAYLOAD","TIME_SYSTEM":"UTC","PERIAPSIS":"538.601"}];
